start=new Date('2021-11-17T00:00:00.000Z').valueOf();
sats=[{"MEAN_MOTION_DOT":"-0.00000652","TLE_LINE2":"2 46789  53.0529 190.1379 0001842  75.8852 284.2342 15.06396872 59354","FILE":"3216827","MEAN_ANOMALY":"284.2342","BSTAR":"-0.00002484500000","REF_FRAME":"TEME","CLASSIFICATION_TYPE":"U","APOAPSIS":"548.499","INCLINATION":"53.0529","SEMIMAJOR_AXIS":"6925.358","PERIAPSIS":"545.947","MEAN_MOTION_DDOT":"0.0000000000000","OBJECT_NAME":"STARLINK-1930","GP_ID":"189882517","ELEMENT_SET_NO":"999","SITE":"AFETR","RA_OF_ASC_NODE":"190.1379","TIME_SYSTEM":"UTC","CENTER_NAME":"EARTH","EPOCH":"2021-11-16T02:51:31.403808","MEAN_ELEMENT_THEORY":"SGP4","NORAD_CAT_ID":"46789","PERIOD":"95.592","OBJECT_TYPE":"PAYLOAD","COUNTRY_CODE":"US","REV_AT_EPOCH":"5935","ARG_OF_PERICENTER":"75.8852","RCS_SIZE":"LARGE","ECCENTRICITY":"0.00018420","LAUNCH_DATE":"2020-10-24","OBJECT_ID":"2020-074BC","MEAN_MOTION":"15.06396872","DECAY_DATE":null,"EPHEMERIS_TYPE":"0","TLE_LINE1":"1 46789U 20074BC  21320.11911347 -.00000652  00000-0 -24845-4 0  9994"},{"MEAN_ELEMENT_THEORY":"SGP4","TIME_SYSTEM":"UTC","CENTER_NAME":"EARTH","EPOCH":"2021-11-16T00:45:30.200256","COUNTRY_CODE":"US","OBJECT_TYPE":"PAYLOAD","REV_AT_EPOCH":"5933","ARG_OF_PERICENTER":"69.9897","NORAD_CAT_ID":"46790","PERIOD":"95.593","CLASSIFICATION_TYPE":"U","INCLINATION":"53.0544","APOAPSIS":"548.485","SEMIMAJOR_AXIS":"6925.376","MEAN_MOTION_DOT":"0.00001392","TLE_LINE2":"2 46790  53.0544 190.5261 0001796  69.9897 290.1285 15.06391004 59330","FILE":"3216827","MEAN_ANOMALY":"290.1285","REF_FRAME":"TEME","BSTAR":"0.00011234000000","GP_ID":"189881265","ELEMENT_SET_NO":"999","SITE":"AFETR","RA_OF_ASC_NODE":"190.5261","PERIAPSIS":"545.997","MEAN_MOTION_DDOT":"0.0000000000000","OBJECT_NAME":"STARLINK-1931","DECAY_DATE":null,"MEAN_MOTION":"15.06391004","TLE_LINE1":"1 46790U 20074BD  21320.03159954  .00001392  00000-0  11234-3 0  9992","EPHEMERIS_TYPE":"0","LAUNCH_DATE":"2020-10-24","OBJECT_ID":"2020-074BD","RCS_SIZE":"LARGE","ECCENTRICITY":"0.00017960"},{"MEAN_ELEMENT_THEORY":"SGP4","TIME_SYSTEM":"UTC","CENTER_NAME":"EARTH","EPOCH":"2021-11-16T18:37:40.507392","COUNTRY_CODE":"US","OBJECT_TYPE":"PAYLOAD","REV_AT_EPOCH":"5912","ARG_OF_PERICENTER":"69.6730","NORAD_CAT_ID":"46791","PERIOD":"95.592","CLASSIFICATION_TYPE":"U","APOAPSIS":"548.530","INCLINATION":"53.0520","SEMIMAJOR_AXIS":"6925.360","MEAN_MOTION_DOT":"0.00003164","TLE_LINE2":"2 46791  53.0520 187.1969 0001884  69.6730 290.4461 15.06396271 59120","FILE":"3216965","MEAN_ANOMALY":"290.4461","BSTAR":"0.00023127000000","REF_FRAME":"TEME","ELEMENT_SET_NO":"999","GP_ID":"189886844","SITE":"AFETR","RA_OF_ASC_NODE":"187.1969","MEAN_MOTION_DDOT":"0.0000000000000","PERIAPSIS":"545.920","OBJECT_NAME":"STARLINK-1933","DECAY_DATE":null,"MEAN_MOTION":"15.06396271","TLE_LINE1":"1 46791U 20074BE  21320.77616328  .00003164  00000-0  23127-3 0  9990","EPHEMERIS_TYPE":"0","LAUNCH_DATE":"2020-10-24","OBJECT_ID":"2020-074BE","RCS_SIZE":"LARGE","ECCENTRICITY":"0.00018840"},{"CENTER_NAME":"EARTH","TIME_SYSTEM":"UTC","EPOCH":"2021-11-16T08:07:22.788480","MEAN_ELEMENT_THEORY":"SGP4","NORAD_CAT_ID":"46792","PERIOD":"95.592","OBJECT_TYPE":"PAYLOAD","COUNTRY_CODE":"US","REV_AT_EPOCH":"5952","ARG_OF_PERICENTER":"79.8162","MEAN_MOTION_DOT":"0.00001404","TLE_LINE2":"2 46792  53.0530 179.1578 0001651  79.8162 280.3013 15.06399833 59525","FILE":"3216827","MEAN_ANOMALY":"280.3013","BSTAR":"0.00011313000000","REF_FRAME":"TEME","CLASSIFICATION_TYPE":"U","INCLINATION":"53.0530","APOAPSIS":"548.357","SEMIMAJOR_AXIS":"6925.349","PERIAPSIS":"546.071","MEAN_MOTION_DDOT":"0.0000000000000","OBJECT_NAME":"STARLINK-1934","GP_ID":"189882267","ELEMENT_SET_NO":"999","SITE":"AFETR","RA_OF_ASC_NODE":"179.1578","MEAN_MOTION":"15.06399833","DECAY_DATE":null,"EPHEMERIS_TYPE":"0","TLE_LINE1":"1 46792U 20074BF  21320.33845820  .00001404  00000-0  11313-3 0  9993","RCS_SIZE":"LARGE","ECCENTRICITY":"0.00016510","LAUNCH_DATE":"2020-10-24","OBJECT_ID":"2020-074BF"},{"ECCENTRICITY":"0.00018740","RCS_SIZE":"LARGE","OBJECT_ID":"2020-074BG","LAUNCH_DATE":"2020-10-24","MEAN_MOTION":"15.06391601","DECAY_DATE":null,"EPHEMERIS_TYPE":"0","TLE_LINE1":"1 46793U 20074BG  21320.10163386 -.00000510  00000-0 -15347-4 0  9990","BSTAR":"-0.00001534700000","REF_FRAME":"TEME","FILE":"3216827","MEAN_ANOMALY":"291.0479","TLE_LINE2":"2 46793  53.0556 190.2178 0001874  69.0711 291.0479 15.06391601 59342","MEAN_MOTION_DOT":"-0.00000510","SEMIMAJOR_AXIS":"6925.374","APOAPSIS":"548.537","INCLINATION":"53.0556","CLASSIFICATION_TYPE":"U","OBJECT_NAME":"STARLINK-1941","PERIAPSIS":"545.941","MEAN_MOTION_DDOT":"0.0000000000000","RA_OF_ASC_NODE":"190.2178","SITE":"AFETR","GP_ID":"189882017","ELEMENT_SET_NO":"999","EPOCH":"2021-11-16T02:26:21.165504","TIME_SYSTEM":"UTC","CENTER_NAME":"EARTH","MEAN_ELEMENT_THEORY":"SGP4","PERIOD":"95.593","NORAD_CAT_ID":"46793","ARG_OF_PERICENTER":"69.0711","REV_AT_EPOCH":"5934","OBJECT_TYPE":"PAYLOAD","COUNTRY_CODE":"US"},{"ECCENTRICITY":"0.00016860","RCS_SIZE":"LARGE","LAUNCH_DATE":"2020-10-24","OBJECT_ID":"2020-074BH","MEAN_MOTION":"15.06390783","DECAY_DATE":null,"EPHEMERIS_TYPE":"0","TLE_LINE1":"1 46794U 20074BH  21320.37439952  .00001119  00000-0  94063-4 0  9991","TLE_LINE2":"2 46794  53.0537 189.0022 0001686  74.3274 285.7901 15.06390783 59395","MEAN_MOTION_DOT":"0.00001119","REF_FRAME":"TEME","BSTAR":"0.00009406300000","FILE":"3216827","MEAN_ANOMALY":"285.7901","CLASSIFICATION_TYPE":"U","SEMIMAJOR_AXIS":"6925.377","INCLINATION":"53.0537","APOAPSIS":"548.409","OBJECT_NAME":"STARLINK-1942","PERIAPSIS":"546.074","MEAN_MOTION_DDOT":"0.0000000000000","GP_ID":"189880765","ELEMENT_SET_NO":"999","RA_OF_ASC_NODE":"189.0022","SITE":"AFETR","TIME_SYSTEM":"UTC","CENTER_NAME":"EARTH","EPOCH":"2021-11-16T08:59:08.118528","MEAN_ELEMENT_THEORY":"SGP4","NORAD_CAT_ID":"46794","PERIOD":"95.593","REV_AT_EPOCH":"5939","OBJECT_TYPE":"PAYLOAD","COUNTRY_CODE":"US","ARG_OF_PERICENTER":"74.3274"},{"SITE":"AFETR","RA_OF_ASC_NODE":"125.8870","GP_ID":"189886255","ELEMENT_SET_NO":"999","PERIAPSIS":"336.332","MEAN_MOTION_DDOT":"0.0000000000000","OBJECT_NAME":"STARLINK-1943","APOAPSIS":"338.935","INCLINATION":"53.0496","SEMIMAJOR_AXIS":"6715.769","CLASSIFICATION_TYPE":"U","FILE":"3216966","MEAN_ANOMALY":"216.5187","REF_FRAME":"TEME","BSTAR":"0.00294170000000","MEAN_MOTION_DOT":"0.00528937","TLE_LINE2":"2 46795  53.0496 125.8870 0001938 143.5965 216.5187 15.77462984 60048","ARG_OF_PERICENTER":"143.5965","OBJECT_TYPE":"PAYLOAD","COUNTRY_CODE":"US","REV_AT_EPOCH":"6004","PERIOD":"91.286","NORAD_CAT_ID":"46795","MEAN_ELEMENT_THEORY":"SGP4","EPOCH":"2021-11-16T17:12:13.560768","CENTER_NAME":"EARTH","TIME_SYSTEM":"UTC","OBJECT_ID":"2020-074BJ","LAUNCH_DATE":"2020-10-24","RCS_SIZE":"LARGE","ECCENTRICITY":"0.00019380","TLE_LINE1":"1 46795U 20074BJ  21320.71682362  .00528937  00000-0  29417-2 0  9996","EPHEMERIS_TYPE":"0","DECAY_DATE":null,"MEAN_MOTION":"15.77462984"},{"MEAN_MOTION":"15.06397040","DECAY_DATE":null,"EPHEMERIS_TYPE":"0","TLE_LINE1":"1 46796U 20074BK  21320.41585686  .00000662  00000-0  63368-4 0  9990","ECCENTRICITY":"0.00016600","RCS_SIZE":"LARGE","LAUNCH_DATE":"2020-10-24","OBJECT_ID":"2020-074BK","TIME_SYSTEM":"UTC","CENTER_NAME":"EARTH","EPOCH":"2021-11-16T09:58:50.032704","MEAN_ELEMENT_THEORY":"SGP4","NORAD_CAT_ID":"46796","PERIOD":"95.592","REV_AT_EPOCH":"5953","COUNTRY_CODE":"US","OBJECT_TYPE":"PAYLOAD","ARG_OF_PERICENTER":"77.5403","TLE_LINE2":"2 46796  53.0535 178.8068 0001660  77.5403 282.5772 15.06397040 59532","MEAN_MOTION_DOT":"0.00000662","REF_FRAME":"TEME","BSTAR":"0.00006336800000","FILE":"3216827","MEAN_ANOMALY":"282.5772","CLASSIFICATION_TYPE":"U","SEMIMAJOR_AXIS":"6925.358","APOAPSIS":"548.372","INCLINATION":"53.0535","OBJECT_NAME":"STARLINK-1944","MEAN_MOTION_DDOT":"0.0000000000000","PERIAPSIS":"546.073","GP_ID":"189881767","ELEMENT_SET_NO":"999","RA_OF_ASC_NODE":"178.8068","SITE":"AFETR"},{"EPHEMERIS_TYPE":"0","TLE_LINE1":"1 46797U 20074BL  21320.54924412  .00017612  00000-0  25575-3 0  9999","MEAN_MOTION":"15.55922960","DECAY_DATE":null,"ECCENTRICITY":"0.00006560","RCS_SIZE":"LARGE","OBJECT_ID":"2020-074BL","LAUNCH_DATE":"2020-10-24","PERIOD":"92.550","NORAD_CAT_ID":"46797","ARG_OF_PERICENTER":"87.7603","REV_AT_EPOCH":"6004","COUNTRY_CODE":"US","OBJECT_TYPE":"PAYLOAD","EPOCH":"2021-11-16T13:10:54.691968","CENTER_NAME":"EARTH","TIME_SYSTEM":"UTC","MEAN_ELEMENT_THEORY":"SGP4","OBJECT_NAME":"STARLINK-1947","PERIAPSIS":"399.028","MEAN_MOTION_DDOT":"0.0000000000000","RA_OF_ASC_NODE":"144.0601","SITE":"AFETR","GP_ID":"189882518","ELEMENT_SET_NO":"999","BSTAR":"0.00025575000000","REF_FRAME":"TEME","FILE":"3216827","MEAN_ANOMALY":"272.3482","TLE_LINE2":"2 46797  53.0542 144.0601 0000656  87.7603 272.3482 15.55922960 60040","MEAN_MOTION_DOT":"0.00017612","SEMIMAJOR_AXIS":"6777.608","INCLINATION":"53.0542","APOAPSIS":"399.918","CLASSIFICATION_TYPE":"U"},{"DECAY_DATE":null,"MEAN_MOTION":"15.06401873","TLE_LINE1":"1 46798U 20074BM  21320.64665756  .00002434  00000-0  18224-3 0  9993","EPHEMERIS_TYPE":"0","OBJECT_ID":"2020-074BM","LAUNCH_DATE":"2020-10-24","ECCENTRICITY":"0.00018300","RCS_SIZE":"LARGE","MEAN_ELEMENT_THEORY":"SGP4","EPOCH":"2021-11-16T15:31:11.213184","CENTER_NAME":"EARTH","TIME_SYSTEM":"UTC","ARG_OF_PERICENTER":"75.1863","REV_AT_EPOCH":"5896","OBJECT_TYPE":"PAYLOAD","COUNTRY_CODE":"US","PERIOD":"95.592","NORAD_CAT_ID":"46798","SEMIMAJOR_AXIS":"6925.343","APOAPSIS":"548.475","INCLINATION":"53.0534","CLASSIFICATION_TYPE":"U","BSTAR":"0.00018224000000","REF_FRAME":"TEME","FILE":"3217038","MEAN_ANOMALY":"284.9329","TLE_LINE2":"2 46798  53.0534 202.7792 0001830  75.1863 284.9329 15.06401873 58967","MEAN_MOTION_DOT":"0.00002434","RA_OF_ASC_NODE":"202.7792","SITE":"AFETR","ELEMENT_SET_NO":"999","GP_ID":"189888307","OBJECT_NAME":"STARLINK-1948","MEAN_MOTION_DDOT":"0.0000000000000","PERIAPSIS":"545.940"}];
